#dP2021  1 23 18  0  0.00000000      96 __u+U ITR00 EXT  IAC
## 2141 583200.00000000   900.00000000 59237 0.7500000000000
+  115   C06C07C08C09C10C11C12C13C14C16C19C20C21C22C23C24C25
+        C26C27C28C29C30C32C33C34C35C36C37C38C39C40C43C44C45
+        C46E01E02E03E04E05E07E08E09E11E12E13E14E15E18E19E21
+        E24E25E26E27E30E31E33E36G01G02G03G04G05G06G07G08G09
+        G10G11G12G13G14G15G16G17G18G19G20G21G22G23G24G25G26
+        G27G28G29G30G31G32J01J02J03R01R02R03R04R05R07R08R09
+        R11R12R13R14R15R16R17R18R19R20R21R22R24  0  0  0  0
++         9  9  7 10  8  8  8 11  9 10  9  9  8  8 10  8  8
++         8  9  8  8  9 10 10  9  7 10  8 11 10 10  8 11 10
++        10  8  8  7  7  7  8  9  8  9  7  7  9  7  7  8  9
++         6  8  7  8  8  7  9  8  8  8  7  7  6  6  7  8  7
++         6  8  7  7  8 11  7  7  6  8  8  8  7  7  8  8  8
++         7  8  8  8  7  8 11 11 10  9  9  8  7  9  7  9  9
++         9  7  9  7  8  8  8  8  8 10  9 10  9  0  0  0  0
%c M  cc GPS ccc cccc cccc cccc cccc ccccc ccccc ccccc ccccc
%c cc cc ccc ccc cccc cccc cccc cccc ccccc ccccc ccccc ccccc
%f  0.0000000  0.000000000  0.00000000000  0.000000000000000
%f  0.0000000  0.000000000  0.00000000000  0.000000000000000
%i    0    0    0    0      0      0      0      0         0
%i    0    0    0    0      0      0      0      0         0
/* IAC                                ULTRA-RAPID PREDICTION
/* S/V CLOCKS ARE ALIGNED TO GNSS TIME                      
/* G:C1WC2W R:C1PC2P E:C1XC5X C:C2IC6I J:C1CC2S             
/* PCV:IGS14_2134 OL/AL:FES2004  NONE     YN ORB:CoN CLK:CoN
*  2021 01 23 20  0  0.00000000
PC06 -19337.788034  37753.181838   -505.812738     29.619123
PC07  -7311.003441  29076.838482 -29199.403472   -255.824627
PC08 -20329.669441  19748.626986  31177.574736   -927.437965
PC09  -9137.386322  38174.058838 -15672.238988    783.182650
PC10   4613.097460  35098.562869 -22365.290805    -98.861062
PC11 -15020.145717  23291.155910   3140.473858   -906.573026
PC12 -20639.888597  12482.160292 -13974.276171    749.184914
PC13  -3189.865401  22988.888295  35283.906531    110.629318
PC14  -5102.041253  20129.024642  18640.486159    -30.064181
PC16 -17997.688522  38212.745664  -1817.526641   -669.720808
PC19  -2587.702131 -25197.572973 -11701.075496    701.677201
PC20  10784.999414 -13197.732636 -22087.832565   -910.343153
PC21 -18335.958292  -7328.233115  19739.860238   -805.596652
PC22 -14788.070290 -22969.272139   5760.392260   -854.408911
PC23  17959.954041  13738.593689 -16361.182407   -879.260622
PC24 -21565.996440   8707.489950 -15410.248689   -746.754045
PC25  -1468.351793  16133.364775 -22729.425813   -907.874590
PC26 -27791.624153  -2285.249626    -96.919880    958.739278
PC27  19307.700128  -2853.923211  19925.150767    471.343052
PC28   7820.652227  15089.404886  22139.912293   -118.183100
PC29   7283.620411 -24429.116592 -11351.111351    342.597999
PC30  18887.757983 -19471.921344   6495.391076    435.200426
PC32  18388.017040   7203.302032 -19702.496854   -885.903286
PC33   2607.516083  25150.186029  11797.217245   -929.437504
PC34 -18737.637472  19852.261985  -5859.741791   -756.416715
PC35  -8179.291417 -15054.818667 -22018.717461   -451.790910
PC36   2254.253206 -16049.443154  22736.688962   -770.374380
PC37  27694.812051   3466.097996   -692.303165   -861.080633
PC38 -18396.716107  22403.628966  30599.509536    125.680204
PC39 -14395.349348  39580.459941  -3156.814712     27.725745
PC40    -59.409218  32144.801331 -27193.447449    124.248088
PC43  -7739.052886  24497.371385  10926.939958   -565.409188
PC44 -19255.028845   3257.780933 -19948.791847      1.802184
PC45 -18023.234797 -13588.262242  16391.101751    343.092465
PC46  20975.101781  -9116.673388  16020.256640    438.545248
PE01  -9486.974453 -20930.794692  18649.551727  -1030.995636
PE02   9623.425281  20956.506180 -18573.359177    193.197613
PE03   2107.854496  29142.759781  -4707.188908   -390.624076
PE04 -13410.606321 -17271.801483  19949.356317   -694.937547
PE05 -10608.153643  24092.626836  13532.405582   -310.468719
PE07  17008.677871  -5035.343177 -23696.599181   -491.525131
PE08  13512.566634  16898.369411 -20198.782533   6057.649628
PE09 -16826.687304   5281.970218  23769.480535   5789.289479
PE11 -27179.875809   8354.997908  -8250.339573   6425.765058
PE12 -17735.528990  -7299.220682 -22541.920676   5391.943846
PE13  27101.794894  -8166.735756   8662.961443    410.797914
PE14 -15898.545613  20718.735340 -10432.560866  -1304.994510
PE15  17750.518912   7162.730995  22591.723963    832.841758
PE18   5785.273130 -28595.870226  -4827.876429  -1426.356420
PE19   -539.445146 -29483.246617   2541.649366    185.816104
PE21  10160.513729 -13069.282715  24536.352082   -644.481713
PE24 -24768.852319  -3191.038678 -15879.138764   -705.334190
PE25 -10312.098074  12964.555859 -24526.211672   -524.938225
PE26  20075.749574 -18815.318536 -10907.096833   2231.210713
PE27  24554.940772   2614.337257  16335.353449     44.950814
PE30  24026.658440  17175.756494  -2153.444247   3239.127354
PE31 -24418.206697 -16662.083011   1421.720706   -477.626506
PE33   2027.360620 -18248.524071 -23202.315277   -465.101267
PE36 -20497.538428  18683.723826  10361.029381    450.285464
PG01  -1800.028722 -14819.282596 -22190.138191    775.007820
PG02 -19643.968434  14800.482896  10697.297871   -569.211819
PG03 -10574.019711 -21611.487839 -11444.011495    -64.008136
PG04     74.697523 -24583.034328   9990.828923   -174.989743
PG05  -7195.033836  13871.820999  21307.167978    -31.775330
PG06 -25916.733332   5472.062452  -2232.580707     -4.318134
PG07 -17715.835435  -8820.279418  18268.944959     32.657695
PG08   4619.291294 -25874.547482  -2471.037955     -7.675964
PG09  -9278.577953 -16760.490671  18322.692381   -315.814073
PG10  21511.620319   8531.613461 -13166.710307    -45.742248
PG11   5436.574483 -21350.344956 -15533.404800    -44.768895
PG12   5845.472141  21680.861415 -14547.462119      8.874175
PG13 -13295.845701  22167.988196   5683.233074     89.159724
PG14 -21187.863958 -10644.457529 -11984.296908     89.669120
PG15  -1087.576086  26135.316240  -3638.633966   -174.311030
PG16   9424.068815 -11606.415738  21684.138881   -269.429934
PG17 -15278.931050   1103.304301 -21261.655537    383.976014
PG18  19552.950333   6969.138053  16598.813808    343.265898
PG19 -16811.122633   8813.009004 -18822.305989    -48.008887
PG20  21961.452292  15145.742311  -1347.678546    525.032745
PG21   7072.879417 -16482.570147 -18715.193556     89.387967
PG22  -3675.607545 -19648.967376 -17370.107764   -692.894157
PG23  20801.917831  16141.283362  -3664.516467    117.082417
PG24  -2712.878065  16902.913685 -20455.687652      3.289828
PG25  17268.132504  20178.269076  -3111.629566     65.829411
PG26  17660.685830  -3108.827910  19626.354375     34.327480
PG27  12314.738120 -21173.369762   9646.936791    -62.001806
PG28 -20044.737364  -8914.044826 -14273.115230    625.646147
PG29   6902.530989  17725.423081  18481.445977   -281.407572
PG30 -24885.918427  -1221.584456   9559.451017   -373.596020
PG31  25999.869688  -6564.671160    304.472075    -95.699580
PG32  15902.778265  -2407.752179 -21015.584063     15.768989
PJ01 -25999.489677  24349.930830  27552.115934   -337.518450
PJ02 -27701.922387  14521.359831 -23796.496966      1.027127
PJ03 -25347.500163  33103.243378  -1287.591127     -0.227454
PR01  12040.619745  16183.375102 -15608.883117     73.917160
PR02   9785.724808  -5511.274304 -22860.834361    464.083544
PR03   1885.349344 -21021.242757 -14246.743971     29.677722
PR04  -6984.438160 -24423.046998   2301.781872     71.185439
PR05 -11842.132970 -14183.480104  17580.411800     65.260128
PR07  -1591.463955  21432.520699  13810.028146    -42.242062
PR08   6961.532766  24448.897697  -2200.221794    -57.002235
PR09 -21599.956685    841.790152 -13581.535977     20.198281
PR11  11766.861711  12472.823115 -18874.164831      4.239184
PR12  23758.008051   8627.616319  -3519.686470    199.093916
PR13  21760.701654   -512.620619  13284.595794    -49.709452
PR14   6622.202200  -9490.041195  22738.773886     60.184386
PR15 -11885.447842 -12748.994948  18636.982030    105.759358
PR16 -24088.015012  -7730.980075   2627.083174    -10.514186
PR17  15100.225466 -19083.606412  -7691.241769    393.829299
PR18   2312.678657 -14837.118655 -20581.237976     64.179929
PR19 -11082.363331  -3635.677889 -22677.341153   -129.118378
PR20 -20158.583901  11775.889822 -10315.335691   -431.782141
PR21 -14466.534221  19048.275479   8836.824608   -182.503624
PR22  -1518.105627  14268.850764  21109.050065    -94.072405
PR24  20190.588211 -12291.811427   9625.782581     28.874455
EOF
